NORAD_CAT_ID,OBJECT_NAME,OBJECT_TYPE,EPOCH,MEAN_MOTION,ECCENTRICITY,INCLINATION,RA_OF_ASC_NODE,ARG_OF_PERICENTER,MEAN_ANOMALY,BSTAR,MEAN_MOTION_DOT,MEAN_MOTION_DDOT,TLE_LINE0,TLE_LINE1,TLE_LINE2,SEMIMAJOR_AXIS,PERIOD,APOGEE,PERIGEE,DECAYED
55292.0,STARLINK-5325,PAYLOAD,2024-04-17 19:32:08,14.98321064,0.0003022,69.9988,326.3612,268.1163,91.965,-9.5978e-05,-1.238e-05,0.0,0 STARLINK-5325,1 55292U 23010Z   24108.81398976 -.00001238  00000-0 -95978-4 0  9993,2 55292  69.9988 326.3612 0003022 268.1163  91.9650 14.98321064 69475,6950.221,96.108,574.186,569.985,0.0
55292.0,STARLINK-5325,PAYLOAD,2024-04-17 21:08:16,14.98320003,0.0003007,69.9989,326.193,267.6201,92.4614,-8.9665e-05,-1.162e-05,0.0,0 STARLINK-5325,1 55292U 23010Z   24108.88075053 -.00001162  00000-0 -89665-4 0  9990,2 55292  69.9989 326.1930 0003007 267.6201  92.4614 14.98320003 69790,6950.224,96.108,574.179,569.999,0.0
55292.0,STARLINK-5325,PAYLOAD,2024-04-17 22:44:26,14.98304331,0.0002947,69.9991,326.0237,270.6507,89.4315,-0.00025278,-3.106e-05,0.0,0 STARLINK-5325,1 55292U 23010Z   24108.94752582 -.00003106  00000-0 -25278-3 0  9995,2 55292  69.9991 326.0237 0002947 270.6507  89.4315 14.98304331 69494,6950.272,96.109,574.186,570.089,0.0
55292.0,STARLINK-5325,PAYLOAD,2024-04-18 21:10:18,14.98322384,0.0001968,70.0016,323.669,236.406,123.6911,-1.9738e-05,-3.28e-06,0.0,0 STARLINK-5325,1 55292U 23010Z   24109.88215671 -.00000328  00000-0 -19738-4 0  9990,2 55292  70.0016 323.6690 0001968 236.4060 123.6911 14.98322384 69634,6950.216,96.107,573.449,570.714,0.0
55292.0,STARLINK-5325,PAYLOAD,2024-04-18 22:46:25,14.98343893,0.0003093,69.9985,323.4985,273.3814,86.6991,0.00010277,1.134e-05,0.0,0 STARLINK-5325,1 55292U 23010Z   24109.94890066  .00001134  00000-0  10277-3 0  9996,2 55292  69.9985 323.4985 0003093 273.3814  86.6991 14.98343893 69958,6950.15,96.106,574.165,569.865,0.0
55292.0,STARLINK-5325,PAYLOAD,2024-04-19 00:22:33,14.98335211,0.0002159,70.001,323.3332,249.6807,110.412,0.00010862,1.204e-05,0.0,0 STARLINK-5325,1 55292U 23010Z   24110.01566624  .00001204  00000-0  10862-3 0  9994,2 55292  70.0010 323.3332 0002159 249.6807 110.4120 14.98335211 69657,6950.177,96.107,573.542,570.541,0.0
55292.0,STARLINK-5325,PAYLOAD,2024-04-19 14:47:45,14.98333802,0.0002038,70.001,321.8158,264.9728,95.1199,0.00035954,4.2e-05,0.0,0 STARLINK-5325,1 55292U 23010Z   24110.61649788  .00004200  00000-0  35954-3 0  9991,2 55292  70.0010 321.8158 0002038 264.9728  95.1199 14.98333802 70059,6950.181,96.107,573.463,570.63,0.0
55292.0,STARLINK-5325,PAYLOAD,2024-04-19 21:12:17,14.98335866,0.0002193,70.0005,321.143,265.1011,94.9898,0.00033782,3.941e-05,0.0,0 STARLINK-5325,1 55292U 23010Z   24110.88353668  .00003941  00000-0  33782-3 0  9997,2 55292  70.0005 321.1430 0002193 265.1011  94.9898 14.98335866 70098,6950.175,96.107,573.564,570.516,0.0
55292.0,STARLINK-5325,PAYLOAD,2024-04-20 00:24:33,14.98338322,0.0002077,70.0008,320.8065,264.8379,95.2543,0.00036089,4.217e-05,0.0,0 STARLINK-5325,1 55292U 23010Z   24111.01705422  .00004217  00000-0  36089-3 0  9992,2 55292  70.0008 320.8065 0002077 264.8379  95.2543 14.98338322 69803,6950.167,96.106,573.476,570.589,0.0
55292.0,STARLINK-5325,PAYLOAD,2024-04-20 14:49:46,14.98341095,0.0001529,70.0025,319.2941,234.2839,125.8178,3.3822e-05,3.11e-06,0.0,0 STARLINK-5325,1 55292U 23010Z   24111.61790226  .00000311  00000-0  33822-4 0  9998,2 55292  70.0025 319.2941 0001529 234.2839 125.8178 14.98341095 70201,6950.159,96.106,573.086,570.961,0.0
55292.0,STARLINK-5325,PAYLOAD,2024-04-20 19:38:11,14.98336064,0.0002634,69.9993,318.7862,267.6113,92.4744,-9.6026e-05,-1.239e-05,0.0,0 STARLINK-5325,1 55292U 23010Z   24111.81818680 -.00001239  00000-0 -96026-4 0  9992,2 55292  69.9993 318.7862 0002634 267.6113  92.4744 14.98336064 69926,6950.174,96.107,573.87,570.208,0.0
55292.0,STARLINK-5325,PAYLOAD,2024-04-20 21:14:19,14.98335,0.0002532,70.0,318.6192,259.1874,100.9,-0.00011825,-1.504e-05,0.0,0 STARLINK-5325,1 55292U 23010Z   24111.88494724 -.00001504  00000-0 -11825-3 0  9996,2 55292  70.0000 318.6192 0002532 259.1874 100.9000 14.98335000 70246,6950.177,96.107,573.802,570.283,0.0
55292.0,STARLINK-5325,PAYLOAD,2024-04-21 14:51:47,14.98339298,0.0002793,69.9986,316.7654,273.0498,87.0342,-0.00015368,-1.927e-05,0.0,0 STARLINK-5325,1 55292U 23010Z   24112.61930265 -.00001927  00000-0 -15368-3 0  9998,2 55292  69.9986 316.7654 0002793 273.0498  87.0342 14.98339298 70353,6950.164,96.106,573.97,570.088,0.0
55292.0,STARLINK-5325,PAYLOAD,2024-04-21 21:16:19,14.98338682,0.0002475,69.9998,316.094,259.1169,100.9711,-7.3768e-05,-9.73e-06,0.0,0 STARLINK-5325,1 55292U 23010Z   24112.88633857 -.00000973  00000-0 -73768-4 0  9993,2 55292  69.9998 316.0940 0002475 259.1169 100.9711 14.98338682 70085,6950.166,96.106,573.751,570.311,0.0
55292.0,STARLINK-5325,PAYLOAD,2024-04-22 00:28:35,14.9834272,0.0002601,69.999,315.756,266.1912,93.8949,-8.711e-05,-1.132e-05,0.0,0 STARLINK-5325,1 55292U 23010Z   24113.01985578 -.00001132  00000-0 -87110-4 0  9993,2 55292  69.9990 315.7560 0002601 266.1912  93.8949 14.98342720 70414,6950.154,96.106,573.826,570.211,0.0
55292.0,STARLINK-5325,PAYLOAD,2024-04-22 19:42:13,14.98321445,0.0002525,70.0,313.7375,246.0538,114.0357,1.0663e-05,3.4e-07,0.0,0 STARLINK-5325,1 55292U 23010Z   24113.82098553  .00000034  00000-0  10663-4 0  9997,2 55292  70.0000 313.7375 0002525 246.0538 114.0357 14.98321445 70226,6950.219,96.108,573.839,570.329,0.0
55292.0,STARLINK-5325,PAYLOAD,2024-04-23 13:19:41,14.98331624,0.0002745,69.9995,311.8844,246.4202,113.6669,5.3523e-05,5.46e-06,0.0,0 STARLINK-5325,1 55292U 23010Z   24114.55533870  .00000546  00000-0  53523-4 0  9994,2 55292  69.9995 311.8844 0002745 246.4202 113.6669 14.98331624 70335,6950.188,96.107,573.961,570.145,0.0
55292.0,STARLINK-5325,PAYLOAD,2024-04-23 14:55:49,14.98333996,0.0002733,69.9991,311.7156,254.1731,105.9126,2.577e-05,2.15e-06,0.0,0 STARLINK-5325,1 55292U 23010Z   24114.62209865  .00000215  00000-0  25770-4 0  9992,2 55292  69.9991 311.7156 0002733 254.1731 105.9126 14.98333996 70657,6950.181,96.107,573.945,570.146,0.0
55292.0,STARLINK-5325,PAYLOAD,2024-04-23 21:20:21,14.98332114,0.0002789,69.9996,311.0429,243.7734,116.3139,4.4923e-05,4.43e-06,0.0,0 STARLINK-5325,1 55292U 23010Z   24114.88913824  .00000443  00000-0  44923-4 0  9991,2 55292  69.9996 311.0429 0002789 243.7734 116.3139 14.98332114 70691,6950.186,96.107,573.99,570.113,0.0
55292.0,STARLINK-5325,PAYLOAD,2024-04-24 13:21:42,14.98326701,0.0002899,69.9994,309.3595,256.5043,103.5793,5.1745e-05,5.24e-06,0.0,0 STARLINK-5325,1 55292U 23010Z   24115.55674197  .00000524  00000-0  51745-4 0  9993,2 55292  69.9994 309.3595 0002899 256.5043 103.5793 14.98326701 70486,6950.203,96.107,574.083,570.053,0.0
55292.0,STARLINK-5325,PAYLOAD,2024-04-24 21:22:22,14.98327298,0.0002933,69.9994,308.5174,255.6285,104.4548,5.0156e-05,5.05e-06,0.0,0 STARLINK-5325,1 55292U 23010Z   24115.89054214  .00000505  00000-0  50156-4 0  9996,2 55292  69.9994 308.5174 0002933 255.6285 104.4548 14.98327298 70847,6950.201,96.107,574.105,570.028,0.0
55292.0,STARLINK-5325,PAYLOAD,2024-04-25 13:23:44,14.98323604,0.0002709,70.0001,306.834,256.9795,103.1062,-5.8283e-05,-7.88e-06,0.0,0 STARLINK-5325,1 55292U 23010Z   24116.55814947 -.00000788  00000-0 -58283-4 0  9991,2 55292  70.0001 306.8340 0002709 256.9795 103.1062 14.98323604 70637,6950.213,96.107,573.96,570.195,0.0
55292.0,STARLINK-5325,PAYLOAD,2024-04-25 14:59:52,14.98336479,0.0002674,70.0001,306.6656,256.6146,103.4715,-0.00029011,-3.553e-05,0.0,0 STARLINK-5325,1 55292U 23010Z   24116.62490890 -.00003553  00000-0 -29011-3 0  9995,2 55292  70.0001 306.6656 0002674 256.6146 103.4715 14.98336479 70950,6950.173,96.107,573.896,570.179,0.0
55292.0,STARLINK-5325,PAYLOAD,2024-04-25 21:24:24,14.98338045,0.0002748,70.0002,305.9939,252.8392,107.2466,-0.00029352,-3.594e-05,0.0,0 STARLINK-5325,1 55292U 23010Z   24116.89194846 -.00003594  00000-0 -29352-3 0  9999,2 55292  70.0002 305.9939 0002748 252.8392 107.2466 14.98338045 70990,6950.168,96.106,573.943,570.123,0.0
55292.0,STARLINK-5325,PAYLOAD,2024-04-26 13:25:44,14.98332741,0.000321,69.997,304.3069,258.0264,102.0535,2.4958e-05,2.05e-06,0.0,0 STARLINK-5325,1 55292U 23010Z   24117.55954243  .00000205  00000-0  24958-4 0  9990,2 55292  69.9970 304.3069 0003210 258.0264 102.0535 14.98332741 70783,6950.184,96.107,574.28,569.818,0.0
55292.0,STARLINK-5325,PAYLOAD,2024-04-26 15:01:52,14.98333611,0.0003362,69.9984,304.1388,268.7721,91.3053,7.1891e-05,7.65e-06,0.0,0 STARLINK-5325,1 55292U 23010Z   24117.62630111  .00000765  00000-0  71891-4 0  9992,2 55292  69.9984 304.1388 0003362 268.7721  91.3053 14.98333611 71103,6950.182,96.107,574.383,569.71,0.0
55292.0,STARLINK-5325,PAYLOAD,2024-04-26 18:14:08,14.98339536,0.0002924,69.9981,303.8014,256.879,103.2042,5.895e-05,6.11e-06,0.0,0 STARLINK-5325,1 55292U 23010Z   24117.75981697  .00000611  00000-0  58950-4 0  9995,2 55292  69.9981 303.8014 0002924 256.8790 103.2042 14.98339536 70819,6950.163,96.106,574.061,569.996,0.0
55292.0,STARLINK-5325,PAYLOAD,2024-04-27 13:27:45,14.98330628,0.0002984,69.9992,301.7837,266.9618,93.12,9.7973e-05,1.076e-05,0.0,0 STARLINK-5325,1 55292U 23010Z   24118.56094009  .00001076  00000-0  97973-4 0  9991,2 55292  69.9992 301.7837 0002984 266.9618  93.1200 14.98330628 70937,6950.191,96.107,574.13,569.982,0.0
55292.0,STARLINK-5325,PAYLOAD,2024-04-27 21:28:25,14.9833117,0.0003049,69.9989,300.9418,268.2967,91.7843,8.7656e-05,9.53e-06,0.0,0 STARLINK-5325,1 55292U 23010Z   24118.89473951  .00000953  00000-0  87656-4 0  9994,2 55292  69.9989 300.9418 0003049 268.2967  91.7843 14.98331170 71294,6950.189,96.107,574.173,569.935,0.0
55292.0,STARLINK-5325,PAYLOAD,2024-04-28 13:29:46,14.98329133,0.0002961,69.9986,299.2573,265.7388,94.3433,-0.00011941,-1.517e-05,0.0,0 STARLINK-5325,1 55292U 23010Z   24119.56234518 -.00001517  00000-0 -11941-3 0  9995,2 55292  69.9986 299.2573 0002961 265.7388  94.3433 14.98329133 71081,6950.196,96.107,574.119,570.003,0.0
